LYNK TOWER 3            
1 55046U 23001AP  26068.68752747  .00013886  00000+0  42324-3 0  9997
2 55046  97.3321 129.5399 0009859 112.8813 247.3472 15.34026505176644
STARLINK-35623          
1 66138U 25237AA  26068.21139863  .00039562  00000+0  13412-2 0  9995
2 66138  53.1591  42.1028 0001058  90.3957 269.7165 15.30190460 22531
